NORAD_CAT_ID,OBJECT_NAME,OBJECT_TYPE,EPOCH,MEAN_MOTION,ECCENTRICITY,INCLINATION,RA_OF_ASC_NODE,ARG_OF_PERICENTER,MEAN_ANOMALY,BSTAR,MEAN_MOTION_DOT,MEAN_MOTION_DDOT,TLE_LINE0,TLE_LINE1,TLE_LINE2,SEMIMAJOR_AXIS,PERIOD,APOGEE,PERIGEE,DECAYED
52353.0,STARLINK-3807,PAYLOAD,2022-10-10 01:18:22,15.08850158,0.000224,53.2231,35.4906,49.0982,311.0204,5.275e-05,5.52e-06,0.0,0 STARLINK-3807,1 52353U 22045Y   22283.05442905  .00000552  00000-0  52750-4 0  9992,2 52353  53.2231  35.4906 0002240  49.0982 311.0204 15.08850158 27587,6917.849,95.437,541.264,538.165,0.0
52353.0,STARLINK-3807,PAYLOAD,2022-10-10 12:26:05,15.08834731,0.0001919,53.2199,33.4118,35.2498,324.8621,7.407e-05,8.91e-06,0.0,0 STARLINK-3807,1 52353U 22045Y   22283.51811488  .00000891  00000-0  74070-4 0  9994,2 52353  53.2199  33.4118 0001919  35.2498 324.8621 15.08834731 27656,6917.896,95.438,541.089,538.434,0.0
52353.0,STARLINK-3807,PAYLOAD,2022-10-10 14:01:28,15.08830441,0.0002406,53.2203,33.1172,32.2285,327.8853,4.8508e-06,-2.11e-06,0.0,0 STARLINK-3807,1 52353U 22045Y   22283.58436167 -.00000211  00000-0  48508-5 0  9993,2 52353  53.2203  33.1172 0002406  32.2285 327.8853 15.08830441 27667,6917.91,95.438,541.439,538.11,0.0
52353.0,STARLINK-3807,PAYLOAD,2022-10-10 15:36:52,15.08827313,0.0002309,53.2201,32.8198,28.9414,331.1706,3.2335e-05,2.26e-06,0.0,0 STARLINK-3807,1 52353U 22045Y   22283.65060262  .00000226  00000-0  32335-4 0  9995,2 52353  53.2201  32.8198 0002309  28.9414 331.1706 15.08827313 27677,6917.919,95.438,541.382,538.187,0.0
52353.0,STARLINK-3807,PAYLOAD,2022-10-11 10:41:31,15.08814897,0.0002577,53.2225,29.2476,22.1814,337.9289,-0.00015197,-2.705e-05,0.0,0 STARLINK-3807,1 52353U 22045Y   22284.44550059 -.00002705  00000-0 -15197-3 0  9993,2 52353  53.2225  29.2476 0002577  22.1814 337.9289 15.08814897 27795,6917.956999999999,95.439,541.605,538.039,0.0
52353.0,STARLINK-3807,PAYLOAD,2022-10-11 15:27:41,15.08817849,0.0002711,53.2205,28.3589,20.7565,339.3537,-0.0002346,-4.018e-05,0.0,0 STARLINK-3807,1 52353U 22045Y   22284.64422469 -.00004018  00000-0 -23460-3 0  9999,2 52353  53.2205  28.3589 0002711  20.7565 339.3537 15.08817849 27821,6917.948,95.439,541.689,537.938,0.0
52353.0,STARLINK-3807,PAYLOAD,2022-10-12 12:07:41,15.08829565,0.0002342,53.219,24.49,33.1338,326.98,-3.047e-05,-7.73e-06,0.0,0 STARLINK-3807,1 52353U 22045Y   22285.50533676 -.00000773  00000-0 -30470-4 0  9992,2 52353  53.2190  24.4900 0002342  33.1338 326.9800 15.08829565 27951,6917.9119999999975,95.438,541.3969999999998,538.1569999999998,0.0
52353.0,STARLINK-3807,PAYLOAD,2022-10-12 13:43:03,15.08833662,0.0002454,53.2188,24.1947,25.1938,334.9173,2.7241e-05,1.45e-06,0.0,0 STARLINK-3807,1 52353U 22045Y   22285.57157271  .00000145  00000-0  27241-4 0  9995,2 52353  53.2188  24.1947 0002454  25.1938 334.9173 15.08833662 27963,6917.9,95.438,541.462,538.067,0.0
52353.0,STARLINK-3807,PAYLOAD,2022-10-12 16:53:50,15.0883367,0.0002562,53.2187,23.5999,26.5776,333.5347,4.1696e-05,3.75e-06,0.0,0 STARLINK-3807,1 52353U 22045Y   22285.70405299  .00000375  00000-0  41696-4 0  9991,2 52353  53.2187  23.5999 0002562  26.5776 333.5347 15.08833670 27986,6917.9,95.438,541.5369999999998,537.992,0.0
52353.0,STARLINK-3807,PAYLOAD,2022-10-13 13:33:52,15.08819078,0.0002524,53.2178,19.7351,26.3309,333.7811,0.00019391,2.797e-05,0.0,0 STARLINK-3807,1 52353U 22045Y   22286.56518652  .00002797  00000-0  19391-3 0  9990,2 52353  53.2178  19.7351 0002524  26.3309 333.7811 15.08819078 28113,6917.944,95.439,541.555,538.063,0.0
52353.0,STARLINK-3807,PAYLOAD,2022-10-13 15:09:15,15.088199800000002,0.0002575,53.2183,19.4369,27.8276,332.2854,0.00019047,2.743e-05,0.0,0 STARLINK-3807,1 52353U 22045Y   22286.63142673  .00002743  00000-0  19047-3 0  9993,2 52353  53.2183  19.4369 0002575  27.8276 332.2854 15.08819980 28124,6917.941999999999,95.439,541.5880000000002,538.025,0.0
52353.0,STARLINK-3807,PAYLOAD,2022-10-14 11:49:15,15.088458800000002,0.0002617,53.2184,15.571,29.6548,330.4592,5.1245e-05,5.27e-06,0.0,0 STARLINK-3807,1 52353U 22045Y   22287.49253802  .00000527  00000-0  51245-4 0  9990,2 52353  53.2184  15.5710 0002617  29.6548 330.4592 15.08845880 28252,6917.861999999999,95.437,541.538,537.9169999999998,0.0
52353.0,STARLINK-3807,PAYLOAD,2022-10-15 11:40:01,15.08842047,0.0002615,53.2178,11.111,32.9452,327.1703,0.00023365,3.432e-05,0.0,0 STARLINK-3807,1 52353U 22045Y   22288.48612909  .00003432  00000-0  23365-3 0  9996,2 52353  53.2178  11.1110 0002615  32.9452 327.1703 15.08842047 28406,6917.874,95.437,541.548,537.93,0.0
52353.0,STARLINK-3807,PAYLOAD,2022-10-15 13:15:24,15.08850919,0.0002848,53.2179,10.8157,29.4873,330.6279,0.00012788,1.748e-05,0.0,0 STARLINK-3807,1 52353U 22045Y   22288.55236856  .00001748  00000-0  12788-3 0  9992,2 52353  53.2179  10.8157 0002848  29.4873 330.6279 15.08850919 28415,6917.847,95.437,541.682,537.742,0.0
52353.0,STARLINK-3807,PAYLOAD,2022-10-15 22:47:42,15.08876116,0.0002698,53.2178,9.031,20.3922,339.7177,-0.00030004,-5.066e-05,0.0,0 STARLINK-3807,1 52353U 22045Y   22288.94979988 -.00005066  00000-0 -30004-3 0  9995,2 52353  53.2178   9.0310 0002698  20.3922 339.7177 15.08876116 28473,6917.77,95.435,541.501,537.769,0.0
52353.0,STARLINK-3807,PAYLOAD,2022-10-16 11:30:49,15.08842957,0.0003343,53.2181,6.6527,37.859,322.2637,-3.4132e-05,-8.32e-06,0.0,0 STARLINK-3807,1 52353U 22045Y   22289.47973563 -.00000832  00000-0 -34132-4 0  9990,2 52353  53.2181   6.6527 0003343  37.8590 322.2637 15.08842957 28555,6917.871,95.437,542.049,537.424,0.0
52353.0,STARLINK-3807,PAYLOAD,2022-10-16 13:06:13,15.08829608,0.0001952,53.219,6.3493,38.5305,321.5826,-0.00016154,-2.857e-05,0.0,0 STARLINK-3807,1 52353U 22045Y   22289.54598476 -.00002857  00000-0 -16154-3 0  9996,2 52353  53.2190   6.3493 0001952  38.5305 321.5826 15.08829608 28561,6917.9119999999975,95.438,541.128,538.427,0.0
52353.0,STARLINK-3807,PAYLOAD,2022-10-17 05:00:03,15.0884606,0.0002295999999999,53.2171,3.3796,28.7925,331.3194,-0.00013682,-2.466e-05,0.0,0 STARLINK-3807,1 52353U 22045Y   22290.20837580 -.00002466  00000-0 -13682-3 0  9992,2 52353  53.2171   3.3796 0002296  28.7925 331.3194 15.08846060 28663,6917.861999999999,95.437,541.315,538.139,0.0
52353.0,STARLINK-3807,PAYLOAD,2022-10-17 11:21:36,15.088409,0.0002786,53.2175,2.1913,26.5425,333.571,-0.00010704,-1.992e-05,0.0,0 STARLINK-3807,1 52353U 22045Y   22290.47333805 -.00001992  00000-0 -10704-3 0  9997,2 52353  53.2175   2.1913 0002786  26.5425 333.5710 15.08840900 28700,6917.878000000002,95.437,541.67,537.815,0.0
52353.0,STARLINK-3807,PAYLOAD,2022-10-18 11:12:23,15.0882534,0.0002555,53.2177,357.7307,24.767,335.3445,6.0219e-05,6.7e-06,0.0,0 STARLINK-3807,1 52353U 22045Y   22291.46694294  .00000670  00000-0  60219-4 0  9996,2 52353  53.2177 357.7307 0002555  24.7670 335.3445 15.08825340 28856,6917.925,95.438,541.558,538.023,0.0
52353.0,STARLINK-3807,PAYLOAD,2022-10-18 14:23:10,15.08846368,0.0002476,53.2181,357.1364,23.3192,336.7912,-0.00025337,-4.319e-05,0.0,0 STARLINK-3807,1 52353U 22045Y   22291.59942350 -.00004319  00000-0 -25337-3 0  9996,2 52353  53.2181 357.1364 0002476  23.3192 336.7912 15.08846368 28873,6917.861,95.437,541.439,538.013,0.0
52353.0,STARLINK-3807,PAYLOAD,2022-10-19 11:03:11,15.08833893,0.0002644,53.2173,353.27,25.1238,334.9882,3.3461e-05,2.44e-06,0.0,0 STARLINK-3807,1 52353U 22045Y   22292.46054405  .00000244  00000-0  33461-4 0  9997,2 52353  53.2173 353.2700 0002644  25.1238 334.9882 15.08833893 29004,6917.899,95.438,541.5930000000002,537.935,0.0
52353.0,STARLINK-3807,PAYLOAD,2022-10-20 04:32:25,15.0882872,0.0003228,53.218,350.0007,2.1096,357.991,-3.9741000000000015e-06,-3.52e-06,0.0,0 STARLINK-3807,1 52353U 22045Y   22293.18918542 -.00000352  00000-0 -39741-5 0  9998,2 52353  53.2180 350.0007 0003228   2.1096 357.9910 15.08828720 29115,6917.915,95.438,542.013,537.547,0.0
52353.0,STARLINK-3807,PAYLOAD,2022-10-20 09:18:34,15.08831694,0.0002566,53.2179,349.1085,26.9267,333.1858,9.2225e-06,-1.42e-06,0.0,0 STARLINK-3807,1 52353U 22045Y   22293.38790334 -.00000142  00000-0  92225-5 0  9999,2 52353  53.2179 349.1085 0002566  26.9267 333.1858 15.08831694 29140,6917.906,95.438,541.5459999999998,537.996,0.0
52353.0,STARLINK-3807,PAYLOAD,2022-10-20 20:26:16,15.08838478,0.0002499,53.2177,347.0266,28.5938,331.5191,7.251399999999999e-05,8.66e-06,0.0,0 STARLINK-3807,1 52353U 22045Y   22293.85157736  .00000866  00000-0  72514-4 0  9994,2 52353  53.2177 347.0266 0002499  28.5938 331.5191 15.08838478 29211,6917.885,95.438,541.479,538.021,0.0
52353.0,STARLINK-3807,PAYLOAD,2022-10-21 02:47:48,15.08841118,0.0002589,53.2169,345.8359,23.9307,336.1805,5.8798e-05,6.47e-06,0.0,0 STARLINK-3807,1 52353U 22045Y   22294.11653571  .00000647  00000-0  58798-4 0  9997,2 52353  53.2169 345.8359 0002589  23.9307 336.1805 15.08841118 29252,6917.877,95.437,541.533,537.951,0.0
52353.0,STARLINK-3807,PAYLOAD,2022-10-21 10:44:44,15.08839802,0.0002665,53.2169,344.3489,20.7998,339.3103,-1.7019e-05,-5.59e-06,0.0,0 STARLINK-3807,1 52353U 22045Y   22294.44773898 -.00000559  00000-0 -17019-4 0  9993,2 52353  53.2169 344.3489 0002665  20.7998 339.3103 15.08839802 29305,6917.880999999999,95.438,541.59,537.9019999999998,0.0
52353.0,STARLINK-3807,PAYLOAD,2022-10-21 13:55:22,15.08710826,0.0002705,53.2175,343.7538,21.6288,338.4818,0.0011866,0.00018581,0.0,0 STARLINK-3807,1 52353U 22045Y   22294.58011913  .00018581  00000-0  11866-2 0  9995,2 52353  53.2175 343.7538 0002705  21.6288 338.4818 15.08710826 29326,6918.275,95.446,542.012,538.269,0.0
52353.0,STARLINK-3807,PAYLOAD,2022-10-22 02:38:16,15.08376069,0.0002314,53.2178,341.3746,74.0743,286.0504,0.0047095,0.00074506,0.0,0 STARLINK-3807,1 52353U 22045Y   22295.10991628  .00074506  00000-0  47095-2 0  9996,2 52353  53.2178 341.3746 0002314  74.0743 286.0504 15.08376069 29404,6919.299,95.467,542.765,539.563,0.0
